{
  "type": "FeatureCollection",
  "name": "planned_roads",
  "features": [
    {
      "type": "Feature",
      "properties": {
        "name": "Proposed connector road",
        "status": "planned",
        "override_id": "OVERRIDE-002",
        "geometry_origin": "user_drawn",
        "rationale": "Planned connector road absent from machine-readable geodata (Tartu city master plan, p.37).",
        "created_by": "user",
        "created_at": "2026-08-25T08:31:00+03:00"
      },
      "geometry": {
        "type": "LineString",
        "coordinates": [
          [26.5195, 58.3770],
          [26.5315, 58.3720],
          [26.5465, 58.3660]
        ]
      }
    }
  ]
}
